OBJECT_NAME,OBJECT_ID,EPOCH,MEAN_MOTION,ECCENTRICITY,INCLINATION,RA_OF_ASC_NODE,ARG_OF_PERICENTER,MEAN_ANOMALY,EPHEMERIS_TYPE,CLASSIFICATION_TYPE,NORAD_CAT_ID,ELEMENT_SET_NO,REV_AT_EPOCH,BSTAR,MEAN_MOTION_DOT,MEAN_MOTION_DDOT
IRIDIUM 138,2017-083B,2026-06-05T10:56:23.205696,14.34216574,.00024172,86.3968,326.6153,88.8838,271.2635,0,U,43071,999,44245,.36067943E-4,.121E-5,0
IRIDIUM 130,2017-083D,2026-06-05T11:05:31.101792,14.34218631,.00020179,86.3962,327.1795,87.6740,272.4687,0,U,43073,999,44243,.23229466E-3,.67E-5,0
IRIDIUM 134,2017-083F,2026-06-05T11:23:47.182560,14.34218262,.00020933,86.3961,326.9653,88.4812,271.6624,0,U,43075,999,44242,.25242115E-4,.9E-6,0
IRIDIUM 141,2017-083H,2026-06-05T19:55:15.179520,14.34217136,.00020801,86.3953,326.7405,90.4468,269.6966,0,U,43077,999,44254,-.22785421E-4,-.44E-6,0
IRIDIUM 153,2017-083J,2026-06-05T20:26:51.478080,14.34217678,.00023611,86.3952,295.2110,89.9713,270.1753,0,U,43078,999,44365,.6860454E-5,.39E-6,0
IRIDIUM 131,2017-083K,2026-06-05T11:14:39.123168,14.34217452,.00020557,86.3957,327.0769,91.8386,268.3046,0,U,43079,999,44242,-.31234252E-4,-.68E-6,0
IRIDIUM 144,2018-030A,2026-06-05T20:35:59.344800,14.34217688,.00020263,86.3950,295.1383,96.8143,263.3283,0,U,43249,999,42851,.36597219E-4,.122E-5,0
IRIDIUM 149,2018-030B,2026-06-05T20:45:07.463808,14.34217622,.00022615,86.3950,295.1025,93.0057,267.1397,0,U,43250,999,42853,.7392409E-5,.4E-6,0
IRIDIUM 157,2018-030C,2026-06-05T19:32:03.424992,14.34217465,.00020749,86.3947,295.1768,93.2044,266.9389,0,U,43251,999,42850,-.3960089E-5,.9E-7,0
IRIDIUM 140,2018-030D,2026-06-05T19:59:27.426048,14.34217655,.00021541,86.3951,295.1812,92.1364,268.0078,0,U,43252,999,42856,.6566595E-5,.38E-6,0
IRIDIUM 146,2018-030F,2026-06-05T19:13:47.401248,14.34217450,.00019552,86.3947,295.1793,94.3296,265.8123,0,U,43254,999,42850,-.4716294E-5,.7E-7,0
IRIDIUM 148,2018-030G,2026-06-05T20:08:35.343744,14.34217578,.0002063,86.3948,295.2062,96.8896,263.2534,0,U,43255,999,42854,-.6724206E-5,.1E-7,0
IRIDIUM 142,2018-030H,2026-06-05T19:22:55.386336,14.34217525,.00020057,86.3946,295.1085,94.6601,265.4824,0,U,43256,999,42850,.5264476E-5,.35E-6,0
IRIDIUM 143,2018-030K,2026-06-05T19:50:19.404672,14.34217454,.00019685,86.3950,295.3090,93.9979,266.1442,0,U,43258,999,42846,-.2509192E-5,.13E-6,0
IRIDIUM 161,2018-047C,2026-06-05T20:50:00.530880,14.43283723,.00024638,86.4479,93.2035,88.8767,271.2716,0,U,43478,999,42350,.10183413E-3,.363E-5,0
IRIDIUM 152,2018-047D,2026-06-05T20:51:30.303072,14.34217826,.00023716,86.3954,93.0640,84.9636,275.1830,0,U,43479,999,42086,.12828861E-4,.56E-6,0
IRIDIUM 147,2018-047E,2026-06-05T21:00:38.201760,14.34216935,.00020338,86.3955,93.0662,83.9171,276.2256,0,U,43480,999,42086,-.7545939E-5,-.1E-7,0
IRIDIUM 110,2018-047F,2026-06-05T19:29:18.310272,14.34217865,.00025763,86.3956,93.1843,88.4403,271.7087,0,U,43481,999,42084,.10113683E-4,.48E-6,0
IRIDIUM 160,2018-061A,2026-06-05T23:12:42.468480,14.34218037,.00022637,86.3968,61.4881,87.1223,273.0232,0,U,43569,999,41176,.21043454E-4,.79E-6,0
IRIDIUM 166,2018-061B,2026-06-05T23:49:14.477088,14.34217681,.00020849,86.3965,61.4280,83.6645,276.4788,0,U,43570,999,41179,.1541776E-5,.24E-6,0
IRIDIUM 158,2018-061C,2026-06-05T19:42:38.418336,14.34216947,.00023091,86.3967,61.5097,84.2636,275.8823,0,U,43571,999,41173,.33251262E-4,.113E-5,0
IRIDIUM 165,2018-061D,2026-06-05T23:40:05.816352,14.34221009,.00020863,86.3969,61.4870,84.2602,275.8832,0,U,43572,999,41178,.94522161E-4,.285E-5,0
IRIDIUM 155,2018-061E,2026-06-05T19:24:22.487904,14.34217755,.0002184,86.3963,61.4305,82.4557,277.6887,0,U,43573,999,41172,.10052388E-4,.48E-6,0
